{
    "links": {
        "self": "http://www.neowsapp.com/rest/v1/neo/3892685?api_key=iIulBulltgU6a56xZRHN4H3l9WmuAYTsLGpBGhQ2"
    },
    "id": "3892685",
    "neo_reference_id": "3892685",
    "name": "(2019 VA3)",
    "designation": "2019 VA3",
    "nasa_jpl_url": "http://ssd.jpl.nasa.gov/sbdb.cgi?sstr=3892685",
    "absolute_magnitude_h": 24.4,
    "estimated_diameter": {
        "kilometers": {
            "estimated_diameter_min": 0.0350392641,
            "estimated_diameter_max": 0.0783501764
        },
        "meters": {
            "estimated_diameter_min": 35.0392641108,
            "estimated_diameter_max": 78.3501764334
        },
        "miles": {
            "estimated_diameter_min": 0.0217723826,
            "estimated_diameter_max": 0.0486845275
        },
        "feet": {
            "estimated_diameter_min": 114.9582192654,
            "estimated_diameter_max": 257.0543928497
        }
    },
    "is_potentially_hazardous_asteroid": false,
    "close_approach_data": [
        {
            "close_approach_date": "2019-10-23",
            "close_approach_date_full": "2019-Oct-23 15:44",
            "epoch_date_close_approach": 1571845440000,
            "relative_velocity": {
                "kilometers_per_second": "10.7640805135",
                "kilometers_per_hour": "38750.6898485536",
                "miles_per_hour": "24078.1717006193"
            },
            "miss_distance": {
                "astronomical": "0.0816279613",
                "lunar": "31.7532769457",
                "kilometers": "12211369.142922431",
                "miles": "7587792.9347783078"
            },
            "orbiting_body": "Earth"
        }
    ],
    "orbital_data": {
        "orbit_id": "2",
        "orbit_determination_date": "2019-11-18 05:03:06",
        "first_observation_date": "2019-11-02",
        "last_observation_date": "2019-11-17",
        "data_arc_in_days": 15,
        "observations_used": 21,
        "orbit_uncertainty": "8",
        "minimum_orbit_intersection": ".0815697",
        "jupiter_tisserand_invariant": "4.158",
        "epoch_osculation": "2458792.5",
        "eccentricity": ".3836942404078699",
        "semi_major_axis": "1.647661358387216",
        "inclination": "15.77417642503166",
        "ascending_node_longitude": "38.81613223311301",
        "orbital_period": "772.5033327294088",
        "perihelion_distance": "1.015463185031434",
        "perihelion_argument": "317.7366001045588",
        "aphelion_distance": "2.279859531742998",
        "perihelion_time": "2458750.196774904348",
        "mean_anomaly": "19.71403926585928",
        "mean_motion": ".4660174069774534",
        "equinox": "J2000",
        "orbit_class": {
            "orbit_class_type": "APO",
            "orbit_class_description": "Near-Earth asteroid orbits which cross the Earth’s orbit similar to that of 1862 Apollo",
            "orbit_class_range": "a (semi-major axis) > 1.0 AU; q (perihelion) < 1.017 AU"
        }
    },
    "is_sentry_object": false
}